IRIDIUM 166             
1 43570U 18061B   25168.82428813  .00000087  00000+0  24148-4 0  9990
2 43570  86.3987 208.9693 0002310  85.7463 274.3997 14.34217030361172
IRIDIUM 158             
1 43571U 18061C   25168.86234442  .00000013  00000+0 -24180-5 0  9995
2 43571  86.3985 208.9631 0002488  92.0249 268.1232 14.34217426361152
IRIDIUM 165             
1 43572U 18061D   25168.81794514  .00000066  00000+0  16400-4 0  9994
2 43572  86.3987 209.0210 0002215  89.3676 270.7774 14.34217301361164
IRIDIUM 155             
1 43573U 18061E   25168.84965967 -.00000021  00000+0 -14689-4 0  9990
2 43573  86.3988 208.8950 0002487  88.0753 272.0727 14.34217302361138
IRIDIUM 154             
1 43574U 18061F   25169.10970525  .00000101  00000+0  28905-4 0  9990
2 43574  86.3987 208.9019 0002315  91.3071 268.8390 14.34217048361221
IRIDIUM 163             
1 43575U 18061G   25168.81160386 -.00000021  00000+0 -14631-4 0  9998
2 43575  86.3990 208.9533 0002365  95.1776 264.9690 14.34216979361150
IRIDIUM 156             
1 43576U 18061H   25169.20484505  .00000086  00000+0  23650-4 0  9995
2 43576  86.3985 208.7960 0002532  84.7102 275.4383 14.34217360361195
IRIDIUM 164             
1 43577U 18061J   25168.83697265  .00000009  00000+0 -38916-5 0  9991
2 43577  86.3992 208.9841 0002012  88.6141 271.5285 14.34216630361190
